     2.100          NAVIGATION                              RINEX VERSION / TYPE
fic2rin                                 06/08/2012 00:07:50 PGM / RUN BY / DATE
                                                            END OF HEADER
30 12  6  7  3 59 44.0 -.222648493946D-03 -.227373675443D-10  .000000000000D+00
     .350000000000D+02 -.111375000000D+03  .465162233017D-08 -.146029774137D+01
    -.539980828762D-05  .111261984566D-01  .408850610256D-05  .515366103745D+04
     .359984000000D+06 -.763684511185D-07  .273204980669D+01  .221654772758D-06
     .960240467813D+00  .297531250000D+03  .156783217535D+01 -.834999066777D-08
    -.152863510236D-09  .100000000000D+01  .169100000000D+04  .000000000000D+00
     .340000000000D+01  .000000000000D+00 -.419095158577D-08  .350000000000D+02
     .352896000000D+06  .400000000000D+01
 9 12  6  7  3 59 44.0  .163388438523D-03  .261479726760D-11  .000000000000D+00
     .200000000000D+02  .697500000000D+02  .412731477637D-08  .148543948951D+01
     .330805778503D-05  .175514965085D-01  .284798443317D-05  .515361814117D+04
     .359984000000D+06  .130385160446D-07  .177487693180D+01 -.424683094025D-06
     .984311077582D+00  .334593750000D+03  .162181721280D+01 -.818605526777D-08
     .311084386485D-09  .100000000000D+01  .169100000000D+04  .000000000000D+00
     .240000000000D+01  .000000000000D+00 -.558793544769D-08  .200000000000D+02
     .357486000000D+06  .400000000000D+01
27 12  6  7  3 59 44.0  .396018847823D-03  .397903932026D-11  .000000000000D+00
     .120000000000D+02  .848125000000D+02  .405338312539D-08 -.184407067333D+01
     .493787229061D-05  .217062563170D-01  .306405127048D-05  .515372522545D+04
     .359984000000D+06 -.260770320892D-06  .174797543657D+01  .478699803352D-06
     .981765554773D+00  .336687500000D+03 -.107610273851D+01 -.811069498586D-08
     .333228166005D-09  .100000000000D+01  .169100000000D+04  .000000000000D+00
     .240000000000D+01  .000000000000D+00 -.419095158577D-08  .120000000000D+02
     .359106000000D+06  .400000000000D+01
13 12  6  7  3 59 44.0  .202606432140D-03 -.238742359215D-11  .000000000000D+00
     .400000000000D+01  .124625000000D+03  .358122060078D-08 -.184339533768D+01
     .642053782940D-05  .498556566890D-02  .109728425741D-04  .515367072105D+04
     .359984000000D+06 -.428408384323D-07  .829926850105D+00  .912696123123D-07
     .985821028477D+00  .181687500000D+03  .201090403523D+01 -.760245953010D-08
    -.614311302817D-10  .100000000000D+01  .169100000000D+04  .000000000000D+00
     .240000000000D+01  .000000000000D+00 -.111758708954D-07  .400000000000D+01
     .359796000000D+06  .400000000000D+01
 9 12  6  7  5 59 44.0  .163407064974D-03  .261479726760D-11  .000000000000D+00
     .210000000000D+02  .890000000000D+02  .393016370709D-08  .253550924531D+01
     .453367829323D-05  .175500684418D-01  .230967998505D-05  .515362342262D+04
     .367184000000D+06  .158324837685D-06  .177482035344D+01 -.633299350739D-07
     .984314238948D+00  .342500000000D+03  .162195676202D+01 -.785889878325D-08
     .196793911542D-09  .100000000000D+01  .169100000000D+04  .000000000000D+00
     .240000000000D+01  .000000000000D+00 -.558793544769D-08  .210000000000D+02
     .360006000000D+06  .400000000000D+01
13 12  6  7  5 59 44.0  .202588737011D-03 -.238742359215D-11  .000000000000D+00
     .200000000000D+02  .107906250000D+03  .364443751974D-08 -.793589326992D+00
     .550784170628D-05  .498433853500D-02  .106301158667D-04  .515366675186D+04
     .367184000000D+06 -.856816768646D-07  .829871842922D+00  .316649675369D-07
     .985820510604D+00  .189562500000D+03  .201127453386D+01 -.763567519938D-08
    -.582167106740D-10  .100000000000D+01  .169100000000D+04  .000000000000D+00
     .240000000000D+01  .000000000000D+00 -.111758708954D-07  .200000000000D+02
     .360006000000D+06  .400000000000D+01
27 12  6  7  5 59 44.0  .396047718823D-03  .397903932026D-11  .000000000000D+00
     .130000000000D+02  .762187500000D+02  .417767401689D-08 -.793987989724D+00
     .403262674809D-05  .217062849551D-01  .350549817085D-05  .515372261429D+04
     .367184000000D+06 -.355765223503D-06  .174791398523D+01 -.186264514923D-07
     .981767307349D+00  .330031250000D+03 -.107603673019D+01 -.847213861287D-08
     .491806199988D-09  .100000000000D+01  .169100000000D+04  .000000000000D+00
     .240000000000D+01  .000000000000D+00 -.419095158577D-08  .130000000000D+02
     .360006000000D+06  .400000000000D+01
 1 12  6  7  6  0  0.0  .260225962847D-03  .170530256582D-11  .000000000000D+00
     .800000000000D+02  .290625000000D+02  .503628120990D-08 -.257673160696D+01
     .144727528095D-05  .761637347750D-03  .640377402306D-05  .515363984871D+04
     .367200000000D+06 -.186264514923D-07 -.136027303349D+01 -.167638063431D-07
     .959609894530D+00  .256718750000D+03  .260684662265D+00 -.817855495536D-08
     .381087302387D-09  .100000000000D+01  .169100000000D+04  .000000000000D+00
     .240000000000D+01  .000000000000D+00  .838190317154D-08  .800000000000D+02
     .360006000000D+06  .400000000000D+01
 2 12  6  7  6  0  0.0  .392835121602D-03  .125055521494D-11  .000000000000D+00
     .680000000000D+02  .197500000000D+02  .552808740989D-08 -.167023837780D+01
     .104680657387D-05  .112660137238D-01  .633299350739D-05  .515369622612D+04
     .367200000000D+06  .145286321640D-06 -.137424013121D+01 -.115483999252D-06
     .938156572478D+00  .244031250000D+03 -.277676301565D+01 -.839177812267D-08
     .555737434409D-09  .100000000000D+01  .169100000000D+04  .000000000000D+00
     .240000000000D+01  .000000000000D+00 -.172294676304D-07  .680000000000D+02
     .360006000000D+06  .400000000000D+01
 3 12  6  7  6  0  0.0  .591143034399D-04  .511590769747D-11  .000000000000D+00
     .540000000000D+02 -.613750000000D+02  .498913638899D-08 -.149568261808D+01
    -.302121043205D-05  .153421823634D-01  .109672546387D-04  .515372175026D+04
     .367200000000D+06  .309199094772D-06 -.253848845019D+01  .253319740295D-06
     .931539769136D+00  .146937500000D+03  .119283006925D+01 -.808212236712D-08
     .287154818294D-09  .100000000000D+01  .169100000000D+04  .000000000000D+00
     .240000000000D+01  .000000000000D+00 -.465661287308D-08  .540000000000D+02
     .360006000000D+06  .400000000000D+01
 4 12  6  7  6  0  0.0  .206825323403D-03  .114823706099D-10  .000000000000D+00
     .470000000000D+02  .232500000000D+02  .564523514670D-08  .152348617493D+01
     .127591192722D-05  .998823391274D-02  .668689608574D-05  .515359985733D+04
     .367200000000D+06 -.216066837311D-06 -.135734667946D+01  .819563865662D-07
     .937214344979D+00  .242656250000D+03  .857708088676D+00 -.856535678149D-08
     .359657838335D-09  .100000000000D+01  .169100000000D+04  .000000000000D+00
     .240000000000D+01  .000000000000D+00 -.605359673500D-08  .470000000000D+02
     .360006000000D+06  .400000000000D+01
 5 12  6  7  6  0  0.0 -.322931911796D-03 -.375166564481D-11  .000000000000D+00
     .640000000000D+02 -.173437500000D+02  .503735268310D-08  .418514886905D+00
    -.884756445885D-06  .268078804947D-02  .755861401558D-05  .515366849518D+04
     .367200000000D+06  .298023223877D-07 -.310696975970D+00  .186264514923D-08
     .951118910263D+00  .224343750000D+03  .226506277501D+00 -.822462830307D-08
    -.687171480593D-09  .100000000000D+01  .169100000000D+04  .000000000000D+00
     .240000000000D+01  .000000000000D+00 -.102445483208D-07  .640000000000D+02
     .360006000000D+06  .400000000000D+01
 6 12  6  7  6  0  0.0  .204164534807D-04 -.318323145621D-11  .000000000000D+00
     .110000000000D+03 -.636250000000D+02  .488448917287D-08  .391295076793D+00
    -.337883830070D-05  .735650211573D-02  .109151005745D-04  .515369365501D+04
     .367200000000D+06  .856816768646D-07 -.246180929185D+01 -.113621354103D-06
     .938351526793D+00  .158906250000D+03 -.529577058599D+00 -.819426989566D-08
     .328942273195D-09  .100000000000D+01  .169100000000D+04  .000000000000D+00
     .240000000000D+01  .000000000000D+00 -.512227416039D-08  .110000000000D+03
     .360006000000D+06  .400000000000D+01
 7 12  6  7  6  0  0.0  .883108004928D-04  .363797880709D-11  .000000000000D+00
     .650000000000D+02  .785312500000D+02  .428017828661D-08 -.303320636241D+01
     .413507223129D-05  .544705463108D-02  .189058482647D-05  .515360582542D+04
     .367200000000D+06  .130385160446D-07  .180049651434D+01 -.689178705215D-07
     .975582650008D+00  .352875000000D+03 -.303158303536D+01 -.821891377932D-08
     .294297972978D-09  .100000000000D+01  .169100000000D+04  .000000000000D+00
     .240000000000D+01  .000000000000D+00 -.107102096081D-07  .650000000000D+02
     .360006000000D+06  .400000000000D+01
 8 12  6  7  6  0  0.0  .139512121677D-05  .113686837722D-12  .000000000000D+00
     .940000000000D+02  .626875000000D+02  .385908931799D-08  .255285682487D+01
     .318698585033D-05  .122893254738D-01  .170990824699D-05  .515367597008D+04
     .367200000000D+06 -.210478901863D-06  .188410027398D+01 -.447034835815D-07
     .997783583177D+00  .367656250000D+03 -.296871399924D+01 -.801176229349D-08
     .207151485834D-09  .100000000000D+01  .169100000000D+04  .000000000000D+00
     .240000000000D+01  .000000000000D+00 -.372529029846D-08  .940000000000D+02
     .360006000000D+06  .400000000000D+01
10 12  6  7  6  0  0.0 -.406322069466D-04 -.125055521494D-11  .000000000000D+00
     .140000000000D+02 -.138750000000D+02  .519914513669D-08  .688675229448D+00
    -.460073351860D-06  .113081289455D-01  .787526369095D-05  .515369703865D+04
     .367200000000D+06 -.428408384323D-07 -.289197627591D+00  .132247805595D-06
     .946012822923D+00  .219000000000D+03  .750519819146D+00 -.841106464032D-08
    -.754674292356D-09  .100000000000D+01  .169100000000D+04  .000000000000D+00
     .240000000000D+01  .000000000000D+00 -.232830643654D-08  .140000000000D+02
     .360006000000D+06  .400000000000D+01
